{"type": "FeatureCollection", "features": [ {"type": "Feature", "properties": {"norad_id": 43648, "name": "BEIDOU-3 M15 (C34)", "group": "gnss", "lat": -53.7357519910315, "lon": -132.14226164758546, "alt_km": 21535.634904994113, "timestamp": "2025-12-09T11:33:55.042450+00:00", "meta": {"OBJECT_NAME": "BEIDOU-3 M15 (C34)", "OBJECT_ID": "2018-078B", "EPOCH": "2025-12-09T01:39:46.574784", "MEAN_MOTION": 1.86231876, "ECCENTRICITY": 0.0003594, "INCLINATION": 54.2613, "RA_OF_ASC_NODE": 306.6504, "ARG_OF_PERICENTER": 17.607, "MEAN_ANOMALY": 342.3947, "EPHEMERIS_TYPE": 0, "CLASSIFICATION_TYPE": "U", "NORAD_CAT_ID": 43648, "ELEMENT_SET_NO": 999, "REV_AT_EPOCH": 4863, "BSTAR": 0, "MEAN_MOTION_DOT": -7.5e-07, "MEAN_MOTION_DDOT": 0}, "tle": {"line1": "1 43648U 18078B   25343.06928906 -.00000075  00000+0  00000+0 0  9997", "line2": "2 43648  54.2613 306.6504 0003594  17.6070 342.3947  1.86231876 48639"}}, "geometry": {"type": "Point", "coordinates": [-132.14226164758546, -53.7357519910315]}}, {"type": "Feature", "properties": {"norad_id": 43683, "name": "BEIDOU-3 G1 (C59)", "group": "gnss", "lat": -2.4428349544716625, "lon": 32.02796635890513, "alt_km": 35791.58694492732, "timestamp": "2025-12-09T11:33:55.042467+00:00", "meta": {"OBJECT_NAME": "BEIDOU-3 G1 (C59)", "OBJECT_ID": "2018-085A", "EPOCH": "2025-12-08T17:41:39.231168", "MEAN_MOTION": 1.00272068, "ECCENTRICITY": 0.0001779, "INCLINATION": 2.5974, "RA_OF_ASC_NODE": 103.0581, "ARG_OF_PERICENTER": 62.9114, "MEAN_ANOMALY": 317.2543, "EPHEMERIS_TYPE": 0, "CLASSIFICATION_TYPE": "U", "NORAD_CAT_ID": 43683, "ELEMENT_SET_NO": 999, "REV_AT_EPOCH": 2615, "BSTAR": 0, "MEAN_MOTION_DOT": -2.75e-06, "MEAN_MOTION_DDOT": 0}, "tle": {"line1": "1 43683U 18085A   25342.73725962 -.00000275  00000+0  00000+0 0  9996", "line2": "2 43683   2.5974 103.0581 0001779  62.9114 317.2543  1.00272068 26153"}}, "geometry": {"type": "Point", "coordinates": [32.02796635890513, -2.4428349544716625]}}, {"type": "Feature", "properties": {"norad_id": 43687, "name": "COSMOS 2529 (757)", "group": "gnss", "lat": -64.25518307890043, "lon": 106.511054785876, "alt_km": 19118.768292714827, "timestamp": "2025-12-09T11:33:55.042485+00:00", "meta": {"OBJECT_NAME": "COSMOS 2529 (757)", "OBJECT_ID": "2018-086A", "EPOCH": "2025-12-08T04:37:38.472960", "MEAN_MOTION": 2.13101938, "ECCENTRICITY": 0.0007175, "INCLINATION": 64.2918, "RA_OF_ASC_NODE": 199.0421, "ARG_OF_PERICENTER": 254.1873, "MEAN_ANOMALY": 105.8121, "EPHEMERIS_TYPE": 0, "CLASSIFICATION_TYPE": "U", "NORAD_CAT_ID": 43687, "ELEMENT_SET_NO": 999, "REV_AT_EPOCH": 5521, "BSTAR": 0, "MEAN_MOTION_DOT": 5e-07, "MEAN_MOTION_DDOT": 0}, "tle": {"line1": "1 43687U 18086A   25342.19280640  .00000050  00000+0  00000+0 0  9990", "line2": "2 43687  64.2918 199.0421 0007175 254.1873 105.8121  2.13101938 55215"}}, "geometry": {"type": "Point", "coordinates": [106.511054785876, -64.25518307890043]}}, {"type": "Feature", "properties": {"norad_id": 43706, "name": "BEIDOU-3 M17 (C36)", "group": "gnss", "lat": 7.841810168220571, "lon": 3.0275316078149315, "alt_km": 21540.264520356763, "timestamp": "2025-12-09T11:33:55.042509+00:00", "meta": {"OBJECT_NAME": "BEIDOU-3 M17 (C36)", "OBJECT_ID": "2018-093A", "EPOCH": "2025-12-07T14:48:21.849120", "MEAN_MOTION": 1.86228285, "ECCENTRICITY": 0.0006281, "INCLINATION": 54.1726, "RA_OF_ASC_NODE": 188.7957, "ARG_OF_PERICENTER": 306.8876, "MEAN_ANOMALY": 53.1241, "EPHEMERIS_TYPE": 0, "CLASSIFICATION_TYPE": "U", "NORAD_CAT_ID": 43706, "ELEMENT_SET_NO": 999, "REV_AT_EPOCH": 4797, "BSTAR": 0, "MEAN_MOTION_DOT": 5.7e-07, "MEAN_MOTION_DDOT": 0}, "tle": {"line1": "1 43706U 18093A   25341.61691955  .00000057  00000+0  00000+0 0  9998", "line2": "2 43706  54.1726 188.7957 0006281 306.8876  53.1241  1.86228285 47972"}}, "geometry": {"type": "Point", "coordinates": [3.0275316078149315, 7.841810168220571]}}, {"type": "Feature", "properties": {"norad_id": 43707, "name": "BEIDOU-3 M18 (C37)", "group": "gnss", "lat": -53.59105508005743, "lon": 87.18174065640211, "alt_km": 21533.93649459491, "timestamp": "2025-12-09T11:33:55.042526+00:00", "meta": {"OBJECT_NAME": "BEIDOU-3 M18 (C37)", "OBJECT_ID": "2018-093B", "EPOCH": "2025-12-08T00:22:06.139776", "MEAN_MOTION": 1.86226539, "ECCENTRICITY": 0.00063651, "INCLINATION": 54.1733, "RA_OF_ASC_NODE": 188.774, "ARG_OF_PERICENTER": 352.0648, "MEAN_ANOMALY": 7.9918, "EPHEMERIS_TYPE": 0, "CLASSIFICATION_TYPE": "U", "NORAD_CAT_ID": 43707, "ELEMENT_SET_NO": 999, "REV_AT_EPOCH": 4797, "BSTAR": 0, "MEAN_MOTION_DOT": 5.3e-07, "MEAN_MOTION_DDOT": 0}, "tle": {"line1": "1 43707U 18093B   25342.01534884  .00000053  00000+0  00000+0 0  9997", "line2": "2 43707  54.1733 188.7740 0006365 352.0648   7.9918  1.86226539 47972"}}, "geometry": {"type": "Point", "coordinates": [87.18174065640211, -53.59105508005743]}}, {"type": "Feature", "properties": {"norad_id": 43873, "name": "GPS BIII-1  (PRN 04)", "group": "gnss", "lat": -38.08304219315115, "lon": 67.18893197690966, "alt_km": 20232.14120195657, "timestamp": "2025-12-09T11:33:55.042548+00:00", "meta": {"OBJECT_NAME": "GPS BIII-1  (PRN 04)", "OBJECT_ID": "2018-109A", "EPOCH": "2025-12-08T13:41:32.071776", "MEAN_MOTION": 2.00553358, "ECCENTRICITY": 0.003721, "INCLINATION": 55.5654, "RA_OF_ASC_NODE": 99.7112, "ARG_OF_PERICENTER": 194.8122, "MEAN_ANOMALY": 178.3596, "EPHEMERIS_TYPE": 0, "CLASSIFICATION_TYPE": "U", "NORAD_CAT_ID": 43873, "ELEMENT_SET_NO": 999, "REV_AT_EPOCH": 5125, "BSTAR": 0, "MEAN_MOTION_DOT": 6e-08, "MEAN_MOTION_DDOT": 0}, "tle": {"line1": "1 43873U 18109A   25342.57051009  .00000006  00000+0  00000+0 0  9991", "line2": "2 43873  55.5654  99.7112 0037210 194.8122 178.3596  2.00553358 51259"}}, "geometry": {"type": "Point", "coordinates": [67.18893197690966, -38.08304219315115]}}, {"type": "Feature", "properties": {"norad_id": 44204, "name": "BEIDOU-3 IGSO-1 (C38)", "group": "gnss", "lat": -28.4425177634214, "lon": 20.214217432308864, "alt_km": 35825.69209302116, "timestamp": "2025-12-09T11:33:55.042566+00:00", "meta": {"OBJECT_NAME": "BEIDOU-3 IGSO-1 (C38)", "OBJECT_ID": "2019-023A", "EPOCH": "2025-11-19T14:15:02.708640", "MEAN_MOTION": 1.00252177, "ECCENTRICITY": 0.0026966, "INCLINATION": 58.4003, "RA_OF_ASC_NODE": 39.8168, "ARG_OF_PERICENTER": 221.2202, "MEAN_ANOMALY": 126.9723, "EPHEMERIS_TYPE": 0, "CLASSIFICATION_TYPE": "U", "NORAD_CAT_ID": 44204, "ELEMENT_SET_NO": 999, "REV_AT_EPOCH": 510, "BSTAR": 0, "MEAN_MOTION_DOT": -2.26e-06, "MEAN_MOTION_DDOT": 0}, "tle": {"line1": "1 44204U 19023A   25323.59378135 -.00000226  00000+0  00000+0 0  9994", "line2": "2 44204  58.4003  39.8168 0026966 221.2202 126.9723  1.00252177  5102"}}, "geometry": {"type": "Point", "coordinates": [20.214217432308864, -28.4425177634214]}}, {"type": "Feature", "properties": {"norad_id": 44231, "name": "BEIDOU-2 G8 (C01)", "group": "gnss", "lat": -1.003732770224811, "lon": 36.581957320641806, "alt_km": 35773.3080755891, "timestamp": "2025-12-09T11:33:55.042588+00:00", "meta": {"OBJECT_NAME": "BEIDOU-2 G8 (C01)", "OBJECT_ID": "2019-027A", "EPOCH": "2025-12-08T22:51:03.351168", "MEAN_MOTION": 1.00268559, "ECCENTRICITY": 0.0008514, "INCLINATION": 1.6519, "RA_OF_ASC_NODE": 74.67, "ARG_OF_PERICENTER": 254.7985, "MEAN_ANOMALY": 235.7828, "EPHEMERIS_TYPE": 0, "CLASSIFICATION_TYPE": "U", "NORAD_CAT_ID": 44231, "ELEMENT_SET_NO": 999, "REV_AT_EPOCH": 2417, "BSTAR": 0, "MEAN_MOTION_DOT": -2.46e-06, "MEAN_MOTION_DDOT": 0}, "tle": {"line1": "1 44231U 19027A   25342.95212212 -.00000246  00000+0  00000+0 0  9994", "line2": "2 44231   1.6519  74.6700 0008514 254.7985 235.7828  1.00268559 24175"}}, "geometry": {"type": "Point", "coordinates": [36.581957320641806, -1.003732770224811]}}, {"type": "Feature", "properties": {"norad_id": 44299, "name": "COSMOS 2534 (758)", "group": "gnss", "lat": 38.25509126319901, "lon": -138.74472189995436, "alt_km": 19136.93791631479, "timestamp": "2025-12-09T11:33:55.042609+00:00", "meta": {"OBJECT_NAME": "COSMOS 2534 (758)", "OBJECT_ID": "2019-030A", "EPOCH": "2025-12-09T05:29:56.086368", "MEAN_MOTION": 2.13102103, "ECCENTRICITY": 0.0009006, "INCLINATION": 64.3653, "RA_OF_ASC_NODE": 199.0114, "ARG_OF_PERICENTER": 283.3894, "MEAN_ANOMALY": 286.0531, "EPHEMERIS_TYPE": 0, "CLASSIFICATION_TYPE": "U", "NORAD_CAT_ID": 44299, "ELEMENT_SET_NO": 999, "REV_AT_EPOCH": 5087, "BSTAR": 0, "MEAN_MOTION_DOT": 4.4e-07, "MEAN_MOTION_DDOT": 0}, "tle": {"line1": "1 44299U 19030A   25343.22912137  .00000044  00000+0  00000+0 0  9991", "line2": "2 44299  64.3653 199.0114 0009006 283.3894 286.0531  2.13102103 50872"}}, "geometry": {"type": "Point", "coordinates": [-138.74472189995436, 38.25509126319901]}}, {"type": "Feature", "properties": {"norad_id": 44337, "name": "BEIDOU-3 IGSO-2 (C39)", "group": "gnss", "lat": -25.05779831286311, "lon": -0.49949177291384095, "alt_km": 35634.53033363042, "timestamp": "2025-12-09T11:33:55.042630+00:00", "meta": {"OBJECT_NAME": "BEIDOU-3 IGSO-2 (C39)", "OBJECT_ID": "2019-035A", "EPOCH": "2025-12-08T21:18:38.600064", "MEAN_MOTION": 1.00272014, "ECCENTRICITY": 0.0037301, "INCLINATION": 55.2241, "RA_OF_ASC_NODE": 160.5341, "ARG_OF_PERICENTER": 202.3504, "MEAN_ANOMALY": 154.1975, "EPHEMERIS_TYPE": 0, "CLASSIFICATION_TYPE": "U", "NORAD_CAT_ID": 44337, "ELEMENT_SET_NO": 999, "REV_AT_EPOCH": 2375, "BSTAR": 0, "MEAN_MOTION_DOT": -7.9e-07, "MEAN_MOTION_DDOT": 0}, "tle": {"line1": "1 44337U 19035A   25342.88794676 -.00000079  00000+0  00000+0 0  9995", "line2": "2 44337  55.2241 160.5341 0037301 202.3504 154.1975  1.00272014 23758"}}, "geometry": {"type": "Point", "coordinates": [-0.49949177291384095, -25.05779831286311]}}]}